ONEWEB-0034             
1 45454U 20020AG  26056.96110867  .00000167  00000+0  43598-3 0  9998
2 45454  87.8843  43.1751 0001801  85.7854 274.3480 13.11412339288015
ONEWEB-0060             
1 45455U 20020AH  26057.23747265  .00000191  00000+0  50248-3 0  9995
2 45455  87.8840  43.1315 0000926 106.6222 253.5008 13.11418532288003
ONEWEB-0086             
1 45456U 20020AJ  26056.91107937 -.00000496  00000+0 -14358-2 0  9997
2 45456  87.8845  43.1837 0001664 109.5642 250.5665 13.11415947288021
ONEWEB-0088             
1 45457U 20020AK  26056.96534819 -.00000031  00000+0 -12305-3 0  9992
2 45457  87.8855  43.1359 0001756  76.7683 283.3641 13.11412953287968
ONEWEB-0102             
1 47258U 20100A   26057.28512087 -.00000376  00000+0 -10818-2 0  9999
2 47258  87.8978  12.6921 0001758  88.5507 271.5823 13.12442229250184
ONEWEB-0109             
1 47259U 20100B   26056.83616460 -.00000288  00000+0 -83566-3 0  9993
2 47259  87.8989  12.7544 0001949  83.6245 276.5105 13.12441800249951
ONEWEB-0110             
1 47260U 20100C   26057.24447341  .00000516  00000+0  14001-2 0  9990
2 47260  87.8988  12.6582 0001657  88.9592 271.1727 13.12443861250178
ONEWEB-0111             
1 47261U 20100D   26057.27495512 -.00000262  00000+0 -76264-3 0  9997
2 47261  87.8990  12.6706 0001695  80.1277 280.0043 13.12440952250017
ONEWEB-0114             
1 47262U 20100E   26057.22921543  .00000108  00000+0  26427-3 0  9994
2 47262  87.8990  12.6749 0002139  79.5016 280.6353 13.12441890249966
ONEWEB-0117             
1 47263U 20100F   26056.83955203 -.00000126  00000+0 -38567-3 0  9991
2 47263  87.8987  12.7470 0001849  81.8590 278.2748 13.12442796249928
ONEWEB-0118             
1 47264U 20100G   26057.25462829  .00000279  00000+0  73955-3 0  9993
2 47264  87.8987  12.6670 0002078  74.4833 285.6525 13.12440116250171
ONEWEB-0119             
1 47265U 20100H   26057.28003823 -.00000369  00000+0 -10619-2 0  9991
2 47265  87.8979  12.6886 0001862  81.1935 278.9405 13.12441553250156
ONEWEB-0120             
1 47266U 20100J   26057.22765395 -.00000025  00000+0 -10381-3 0  9991
2 47266  87.8976  12.7000 0001901  82.4251 277.7094 13.12442224250171
ONEWEB-0121             
1 47267U 20100K   26056.83446861 -.00000346  00000+0 -99683-3 0  9990
2 47267  87.8988  12.7530 0001675  84.7316 275.4004 13.12442673250037
ONEWEB-0122             
1 47268U 20100L   26057.28597473 -.00001266  00000+0 -35555-2 0  9996
2 47268  87.8983  12.6664 0001707  85.3342 274.7981 13.12435863250008
ONEWEB-0123             
1 47269U 20100M   26057.28172932 -.00000394  00000+0 -11297-2 0  9994
2 47269  87.8974  12.6873 0001855  78.0733 282.0603 13.12441477250144
