[{"OBJECT_NAME":"ONEWEB-0034","OBJECT_ID":"2020-020AG","EPOCH":"2026-02-25T23:03:59.789088","MEAN_MOTION":13.11412339,"ECCENTRICITY":0.0001801,"INCLINATION":87.8843,"RA_OF_ASC_NODE":43.1751,"ARG_OF_PERICENTER":85.7854,"MEAN_ANOMALY":274.348,"EPHEMERIS_TYPE":0,"CLASSIFICATION_TYPE":"U","NORAD_CAT_ID":45454,"ELEMENT_SET_NO":999,"REV_AT_EPOCH":28801,"BSTAR":0.00043597987,"MEAN_MOTION_DOT":1.67e-6,"MEAN_MOTION_DDOT":0},{"OBJECT_NAME":"ONEWEB-0060","OBJECT_ID":"2020-020AH","EPOCH":"2026-02-26T05:41:57.636960","MEAN_MOTION":13.11418532,"ECCENTRICITY":9.263e-5,"INCLINATION":87.884,"RA_OF_ASC_NODE":43.1315,"ARG_OF_PERICENTER":106.6222,"MEAN_ANOMALY":253.5008,"EPHEMERIS_TYPE":0,"CLASSIFICATION_TYPE":"U","NORAD_CAT_ID":45455,"ELEMENT_SET_NO":999,"REV_AT_EPOCH":28800,"BSTAR":0.00050248466,"MEAN_MOTION_DOT":1.91e-6,"MEAN_MOTION_DDOT":0},{"OBJECT_NAME":"ONEWEB-0086","OBJECT_ID":"2020-020AJ","EPOCH":"2026-02-25T21:51:57.257568","MEAN_MOTION":13.11415947,"ECCENTRICITY":0.00016641,"INCLINATION":87.8845,"RA_OF_ASC_NODE":43.1837,"ARG_OF_PERICENTER":109.5642,"MEAN_ANOMALY":250.5665,"EPHEMERIS_TYPE":0,"CLASSIFICATION_TYPE":"U","NORAD_CAT_ID":45456,"ELEMENT_SET_NO":999,"REV_AT_EPOCH":28802,"BSTAR":-0.0014357791,"MEAN_MOTION_DOT":-4.96e-6,"MEAN_MOTION_DDOT":0},{"OBJECT_NAME":"ONEWEB-0088","OBJECT_ID":"2020-020AK","EPOCH":"2026-02-25T23:10:06.083616","MEAN_MOTION":13.11412953,"ECCENTRICITY":0.00017569,"INCLINATION":87.8855,"RA_OF_ASC_NODE":43.1359,"ARG_OF_PERICENTER":76.7683,"MEAN_ANOMALY":283.3641,"EPHEMERIS_TYPE":0,"CLASSIFICATION_TYPE":"U","NORAD_CAT_ID":45457,"ELEMENT_SET_NO":999,"REV_AT_EPOCH":28796,"BSTAR":-0.00012304734,"MEAN_MOTION_DOT":-3.1e-7,"MEAN_MOTION_DDOT":0},{"OBJECT_NAME":"ONEWEB-0102","OBJECT_ID":"2020-100A","EPOCH":"2026-02-26T06:50:34.443168","MEAN_MOTION":13.12442229,"ECCENTRICITY":0.00017581,"INCLINATION":87.8978,"RA_OF_ASC_NODE":12.6921,"ARG_OF_PERICENTER":88.5507,"MEAN_ANOMALY":271.5823,"EPHEMERIS_TYPE":0,"CLASSIFICATION_TYPE":"U","NORAD_CAT_ID":47258,"ELEMENT_SET_NO":999,"REV_AT_EPOCH":25018,"BSTAR":-0.001081764,"MEAN_MOTION_DOT":-3.76e-6,"MEAN_MOTION_DDOT":0},{"OBJECT_NAME":"ONEWEB-0109","OBJECT_ID":"2020-100B","EPOCH":"2026-02-25T20:04:04.621440","MEAN_MOTION":13.124418,"ECCENTRICITY":0.00019492,"INCLINATION":87.8989,"RA_OF_ASC_NODE":12.7544,"ARG_OF_PERICENTER":83.6245,"MEAN_ANOMALY":276.5105,"EPHEMERIS_TYPE":0,"CLASSIFICATION_TYPE":"U","NORAD_CAT_ID":47259,"ELEMENT_SET_NO":999,"REV_AT_EPOCH":24995,"BSTAR":-0.00083566454,"MEAN_MOTION_DOT":-2.88e-6,"MEAN_MOTION_DDOT":0},{"OBJECT_NAME":"ONEWEB-0110","OBJECT_ID":"2020-100C","EPOCH":"2026-02-26T05:52:02.502624","MEAN_MOTION":13.12443861,"ECCENTRICITY":0.00016574,"INCLINATION":87.8988,"RA_OF_ASC_NODE":12.6582,"ARG_OF_PERICENTER":88.9592,"MEAN_ANOMALY":271.1727,"EPHEMERIS_TYPE":0,"CLASSIFICATION_TYPE":"U","NORAD_CAT_ID":47260,"ELEMENT_SET_NO":999,"REV_AT_EPOCH":25017,"BSTAR":0.001400111,"MEAN_MOTION_DOT":5.16e-6,"MEAN_MOTION_DDOT":0},{"OBJECT_NAME":"ONEWEB-0111","OBJECT_ID":"2020-100D","EPOCH":"2026-02-26T06:35:56.122368","MEAN_MOTION":13.12440952,"ECCENTRICITY":0.00016955,"INCLINATION":87.899,"RA_OF_ASC_NODE":12.6706,"ARG_OF_PERICENTER":80.1277,"MEAN_ANOMALY":280.0043,"EPHEMERIS_TYPE":0,"CLASSIFICATION_TYPE":"U","NORAD_CAT_ID":47261,"ELEMENT_SET_NO":999,"REV_AT_EPOCH":25001,"BSTAR":-0.00076264247,"MEAN_MOTION_DOT":-2.62e-6,"MEAN_MOTION_DDOT":0},{"OBJECT_NAME":"ONEWEB-0114","OBJECT_ID":"2020-100E","EPOCH":"2026-02-26T05:30:04.213152","MEAN_MOTION":13.1244189,"ECCENTRICITY":0.00021396,"INCLINATION":87.899,"RA_OF_ASC_NODE":12.6749,"ARG_OF_PERICENTER":79.5016,"MEAN_ANOMALY":280.6353,"EPHEMERIS_TYPE":0,"CLASSIFICATION_TYPE":"U","NORAD_CAT_ID":47262,"ELEMENT_SET_NO":999,"REV_AT_EPOCH":24996,"BSTAR":0.00026426661,"MEAN_MOTION_DOT":1.08e-6,"MEAN_MOTION_DDOT":0},{"OBJECT_NAME":"ONEWEB-0117","OBJECT_ID":"2020-100F","EPOCH":"2026-02-25T20:08:57.295392","MEAN_MOTION":13.12442796,"ECCENTRICITY":0.0001849,"INCLINATION":87.8987,"RA_OF_ASC_NODE":12.747,"ARG_OF_PERICENTER":81.859,"MEAN_ANOMALY":278.2748,"EPHEMERIS_TYPE":0,"CLASSIFICATION_TYPE":"U","NORAD_CAT_ID":47263,"ELEMENT_SET_NO":999,"REV_AT_EPOCH":24992,"BSTAR":-0.00038567064,"MEAN_MOTION_DOT":-1.26e-6,"MEAN_MOTION_DDOT":0},{"OBJECT_NAME":"ONEWEB-0118","OBJECT_ID":"2020-100G","EPOCH":"2026-02-26T06:06:39.884256","MEAN_MOTION":13.12440116,"ECCENTRICITY":0.00020789,"INCLINATION":87.8987,"RA_OF_ASC_NODE":12.667,"ARG_OF_PERICENTER":74.4833,"MEAN_ANOMALY":285.6525,"EPHEMERIS_TYPE":0,"CLASSIFICATION_TYPE":"U","NORAD_CAT_ID":47264,"ELEMENT_SET_NO":999,"REV_AT_EPOCH":25017,"BSTAR":0.00073954823,"MEAN_MOTION_DOT":2.79e-6,"MEAN_MOTION_DDOT":0},{"OBJECT_NAME":"ONEWEB-0119","OBJECT_ID":"2020-100H","EPOCH":"2026-02-26T06:43:15.303072","MEAN_MOTION":13.12441553,"ECCENTRICITY":0.00018623,"INCLINATION":87.8979,"RA_OF_ASC_NODE":12.6886,"ARG_OF_PERICENTER":81.1935,"MEAN_ANOMALY":278.9405,"EPHEMERIS_TYPE":0,"CLASSIFICATION_TYPE":"U","NORAD_CAT_ID":47265,"ELEMENT_SET_NO":999,"REV_AT_EPOCH":25015,"BSTAR":-0.0010618839,"MEAN_MOTION_DOT":-3.69e-6,"MEAN_MOTION_DDOT":0},{"OBJECT_NAME":"ONEWEB-0120","OBJECT_ID":"2020-100J","EPOCH":"2026-02-26T05:27:49.301280","MEAN_MOTION":13.12442224,"ECCENTRICITY":0.00019016,"INCLINATION":87.8976,"RA_OF_ASC_NODE":12.7,"ARG_OF_PERICENTER":82.4251,"MEAN_ANOMALY":277.7094,"EPHEMERIS_TYPE":0,"CLASSIFICATION_TYPE":"U","NORAD_CAT_ID":47266,"ELEMENT_SET_NO":999,"REV_AT_EPOCH":25017,"BSTAR":-0.00010380627,"MEAN_MOTION_DOT":-2.5e-7,"MEAN_MOTION_DDOT":0},{"OBJECT_NAME":"ONEWEB-0121","OBJECT_ID":"2020-100K","EPOCH":"2026-02-25T20:01:38.087904","MEAN_MOTION":13.12442673,"ECCENTRICITY":0.00016756,"INCLINATION":87.8988,"RA_OF_ASC_NODE":12.753,"ARG_OF_PERICENTER":84.7316,"MEAN_ANOMALY":275.4004,"EPHEMERIS_TYPE":0,"CLASSIFICATION_TYPE":"U","NORAD_CAT_ID":47267,"ELEMENT_SET_NO":999,"REV_AT_EPOCH":25003,"BSTAR":-0.00099682826,"MEAN_MOTION_DOT":-3.46e-6,"MEAN_MOTION_DDOT":0},{"OBJECT_NAME":"ONEWEB-0122","OBJECT_ID":"2020-100L","EPOCH":"2026-02-26T06:51:48.216672","MEAN_MOTION":13.12435863,"ECCENTRICITY":0.00017075,"INCLINATION":87.8983,"RA_OF_ASC_NODE":12.6664,"ARG_OF_PERICENTER":85.3342,"MEAN_ANOMALY":274.7981,"EPHEMERIS_TYPE":0,"CLASSIFICATION_TYPE":"U","NORAD_CAT_ID":47268,"ELEMENT_SET_NO":999,"REV_AT_EPOCH":25000,"BSTAR":-0.003555492,"MEAN_MOTION_DOT":-1.266e-5,"MEAN_MOTION_DDOT":0},{"OBJECT_NAME":"ONEWEB-0123","OBJECT_ID":"2020-100M","EPOCH":"2026-02-26T06:45:41.413248","MEAN_MOTION":13.12441477,"ECCENTRICITY":0.00018559,"INCLINATION":87.8974,"RA_OF_ASC_NODE":12.6873,"ARG_OF_PERICENTER":78.0733,"MEAN_ANOMALY":282.0603,"EPHEMERIS_TYPE":0,"CLASSIFICATION_TYPE":"U","NORAD_CAT_ID":47269,"ELEMENT_SET_NO":999,"REV_AT_EPOCH":25014,"BSTAR":-0.0011296706,"MEAN_MOTION_DOT":-3.94e-6,"MEAN_MOTION_DDOT":0}]
